{
  "type": "FeatureCollection",
  "features": [
    {
      "type": "Feature",
      "properties": {
        "norad_id": 30090,
        "name": "FENGYUN 1C DEB",
        "group": "fengyun-1c-debris",
        "lat": 2.9410981690336166,
        "lon": 152.2305299904851,
        "alt_km": 822.7568512815387,
        "timestamp": "2025-12-06T03:35:02.144812+00:00",
        "meta_object_name": "FENGYUN 1C DEB",
        "meta_object_id": "1999-025QT",
        "meta_epoch": "2025-12-05T06:32:54.934656",
        "meta_mean_motion": 14.29008773,
        "meta_eccentricity": 0.00581426,
        "meta_inclination": 99.4092,
        "meta_ra_of_asc_node": 151.7736,
        "meta_arg_of_pericenter": 133.0472,
        "meta_mean_anomaly": 44.133,
        "meta_ephemeris_type": 0,
        "meta_classification_type": "U",
        "meta_norad_cat_id": 30090,
        "meta_element_set_no": 999,
        "meta_rev_at_epoch": 98163,
        "meta_bstar": 0.00055104524,
        "meta_mean_motion_dot": 1.37e-05,
        "meta_mean_motion_ddot": 0,
        "tle_line1": "1 30090U 99025QT  25339.27285804  .00001370  00000+0  55105-3 0  9994",
        "tle_line2": "2 30090  99.4092 151.7736 0058142 133.0472  44.1330 14.29008773981630"
      },
      "geometry": {
        "type": "Point",
        "coordinates": [
          152.2305299904851,
          2.9410981690336166
        ]
      }
    },
    {
      "type": "Feature",
      "properties": {
        "norad_id": 30092,
        "name": "FENGYUN 1C DEB",
        "group": "fengyun-1c-debris",
        "lat": 79.35829805263562,
        "lon": 102.40984934179062,
        "alt_km": 812.7462818929434,
        "timestamp": "2025-12-06T03:35:02.144823+00:00",
        "meta_object_name": "FENGYUN 1C DEB",
        "meta_object_id": "1999-025QV",
        "meta_epoch": "2025-12-05T06:22:00.921216",
        "meta_mean_motion": 14.39096462,
        "meta_eccentricity": 0.00826114,
        "meta_inclination": 98.9223,
        "meta_ra_of_asc_node": 158.2181,
        "meta_arg_of_pericenter": 272.6761,
        "meta_mean_anomaly": 274.0259,
        "meta_ephemeris_type": 0,
        "meta_classification_type": "U",
        "meta_norad_cat_id": 30092,
        "meta_element_set_no": 999,
        "meta_rev_at_epoch": 98641,
        "meta_bstar": 0.0010518075,
        "meta_mean_motion_dot": 3.336e-05,
        "meta_mean_motion_ddot": 0,
        "tle_line1": "1 30092U 99025QV  25339.26528844  .00003336  00000+0  10518-2 0  9991",
        "tle_line2": "2 30092  98.9223 158.2181 0082611 272.6761 274.0259 14.39096462986415"
      },
      "geometry": {
        "type": "Point",
        "coordinates": [
          102.40984934179062,
          79.35829805263562
        ]
      }
    },
    {
      "type": "Feature",
      "properties": {
        "norad_id": 30093,
        "name": "FENGYUN 1C DEB",
        "group": "fengyun-1c-debris",
        "lat": -9.909334763428102,
        "lon": 32.882724967622515,
        "alt_km": 799.7104498460185,
        "timestamp": "2025-12-06T03:35:02.144834+00:00",
        "meta_object_name": "FENGYUN 1C DEB",
        "meta_object_id": "1999-025QW",
        "meta_epoch": "2025-12-05T05:37:12.258624",
        "meta_mean_motion": 14.43617515,
        "meta_eccentricity": 0.00706133,
        "meta_inclination": 98.8681,
        "meta_ra_of_asc_node": 213.4928,
        "meta_arg_of_pericenter": 359.8004,
        "meta_mean_anomaly": 116.8885,
        "meta_ephemeris_type": 0,
        "meta_classification_type": "U",
        "meta_norad_cat_id": 30093,
        "meta_element_set_no": 999,
        "meta_rev_at_epoch": 98695,
        "meta_bstar": 0.001827428,
        "meta_mean_motion_dot": 6.343e-05,
        "meta_mean_motion_ddot": 0,
        "tle_line1": "1 30093U 99025QW  25339.23416966  .00006343  00000+0  18274-2 0  9998",
        "tle_line2": "2 30093  98.8681 213.4928 0070613 359.8004 116.8885 14.43617515986953"
      },
      "geometry": {
        "type": "Point",
        "coordinates": [
          32.882724967622515,
          -9.909334763428102
        ]
      }
    },
    {
      "type": "Feature",
      "properties": {
        "norad_id": 30095,
        "name": "FENGYUN 1C DEB",
        "group": "fengyun-1c-debris",
        "lat": 51.15700193307828,
        "lon": 91.91695711716079,
        "alt_km": 701.4613571844711,
        "timestamp": "2025-12-06T03:35:02.144845+00:00",
        "meta_object_name": "FENGYUN 1C DEB",
        "meta_object_id": "1999-025QY",
        "meta_epoch": "2025-12-05T05:56:30.848928",
        "meta_mean_motion": 14.81431473,
        "meta_eccentricity": 0.01679649,
        "meta_inclination": 99.22,
        "meta_ra_of_asc_node": 259.2427,
        "meta_arg_of_pericenter": 355.995,
        "meta_mean_anomaly": 3.9903,
        "meta_ephemeris_type": 0,
        "meta_classification_type": "U",
        "meta_norad_cat_id": 30095,
        "meta_element_set_no": 999,
        "meta_rev_at_epoch": 99224,
        "meta_bstar": 0.0039467193,
        "meta_mean_motion_dot": 0.00039572,
        "meta_mean_motion_ddot": 0,
        "tle_line1": "1 30095U 99025QY  25339.24757927  .00039572  00000+0  39467-2 0  9993",
        "tle_line2": "2 30095  99.2200 259.2427 0167964 355.9950   3.9903 14.81431473992247"
      },
      "geometry": {
        "type": "Point",
        "coordinates": [
          91.91695711716079,
          51.15700193307828
        ]
      }
    },
    {
      "type": "Feature",
      "properties": {
        "norad_id": 30096,
        "name": "FENGYUN 1C DEB",
        "group": "fengyun-1c-debris",
        "lat": -59.88474044953074,
        "lon": -137.08151976045136,
        "alt_km": 737.633767541728,
        "timestamp": "2025-12-06T03:35:02.144856+00:00",
        "meta_object_name": "FENGYUN 1C DEB",
        "meta_object_id": "1999-025QZ",
        "meta_epoch": "2025-12-05T04:39:04.485024",
        "meta_mean_motion": 14.31669809,
        "meta_eccentricity": 0.00789171,
        "meta_inclination": 99.1484,
        "meta_ra_of_asc_node": 58.0421,
        "meta_arg_of_pericenter": 254.4515,
        "meta_mean_anomaly": 104.7944,
        "meta_ephemeris_type": 0,
        "meta_classification_type": "U",
        "meta_norad_cat_id": 30096,
        "meta_element_set_no": 999,
        "meta_rev_at_epoch": 98438,
        "meta_bstar": 0.0005844363,
        "meta_mean_motion_dot": 1.563e-05,
        "meta_mean_motion_ddot": 0,
        "tle_line1": "1 30096U 99025QZ  25339.19380191  .00001563  00000+0  58444-3 0  9999",
        "tle_line2": "2 30096  99.1484  58.0421 0078917 254.4515 104.7944 14.31669809984381"
      },
      "geometry": {
        "type": "Point",
        "coordinates": [
          -137.08151976045136,
          -59.88474044953074
        ]
      }
    },
    {
      "type": "Feature",
      "properties": {
        "norad_id": 30099,
        "name": "FENGYUN 1C DEB",
        "group": "fengyun-1c-debris",
        "lat": -76.6211954309252,
        "lon": -166.56651721356096,
        "alt_km": 769.0822720661445,
        "timestamp": "2025-12-06T03:35:02.144867+00:00",
        "meta_object_name": "FENGYUN 1C DEB",
        "meta_object_id": "1999-025RC",
        "meta_epoch": "2025-12-05T04:36:14.800608",
        "meta_mean_motion": 14.25920109,
        "meta_eccentricity": 0.0060915,
        "meta_inclination": 98.5414,
        "meta_ra_of_asc_node": 51.6886,
        "meta_arg_of_pericenter": 267.1127,
        "meta_mean_anomaly": 120.2757,
        "meta_ephemeris_type": 0,
        "meta_classification_type": "U",
        "meta_norad_cat_id": 30099,
        "meta_element_set_no": 999,
        "meta_rev_at_epoch": 98082,
        "meta_bstar": 0.00055525492,
        "meta_mean_motion_dot": 1.306e-05,
        "meta_mean_motion_ddot": 0,
        "tle_line1": "1 30099U 99025RC  25339.19183797  .00001306  00000+0  55525-3 0  9997",
        "tle_line2": "2 30099  98.5414  51.6886 0060915 267.1127 120.2757 14.25920109980829"
      },
      "geometry": {
        "type": "Point",
        "coordinates": [
          -166.56651721356096,
          -76.6211954309252
        ]
      }
    },
    {
      "type": "Feature",
      "properties": {
        "norad_id": 30102,
        "name": "FENGYUN 1C DEB",
        "group": "fengyun-1c-debris",
        "lat": 6.295446988535138,
        "lon": 169.1828648477362,
        "alt_km": 912.0544652941271,
        "timestamp": "2025-12-06T03:35:02.144877+00:00",
        "meta_object_name": "FENGYUN 1C DEB",
        "meta_object_id": "1999-025RF",
        "meta_epoch": "2025-12-05T00:00:20.546784",
        "meta_mean_motion": 14.22110966,
        "meta_eccentricity": 0.01421956,
        "meta_inclination": 98.3793,
        "meta_ra_of_asc_node": 347.1588,
        "meta_arg_of_pericenter": 22.7897,
        "meta_mean_anomaly": 30.4659,
        "meta_ephemeris_type": 0,
        "meta_classification_type": "U",
        "meta_norad_cat_id": 30102,
        "meta_element_set_no": 999,
        "meta_rev_at_epoch": 97848,
        "meta_bstar": 0.00063483147,
        "meta_mean_motion_dot": 1.517e-05,
        "meta_mean_motion_ddot": 0,
        "tle_line1": "1 30102U 99025RF  25339.00023781  .00001517  00000+0  63483-3 0  9994",
        "tle_line2": "2 30102  98.3793 347.1588 0142195  22.7897  30.4659 14.22110966978485"
      },
      "geometry": {
        "type": "Point",
        "coordinates": [
          169.1828648477362,
          6.295446988535138
        ]
      }
    }
  ]
}